{
  "type": "FeatureCollection",
  "features": [
    {
      "type": "Feature",
      "properties": {
        "norad_id": 34079,
        "name": "IRIDIUM 33 DEB",
        "group": "iridium-33-debris",
        "lat": 85.71130539851481,
        "lon": 127.51212396367802,
        "alt_km": 611.3789096510609,
        "timestamp": "2025-12-20T09:36:02.033589+00:00",
        "meta_object_name": "IRIDIUM 33 DEB",
        "meta_object_id": "1997-051CN",
        "meta_epoch": "2025-12-20T01:20:01.279104",
        "meta_mean_motion": 14.83701637,
        "meta_eccentricity": 0.0004734,
        "meta_inclination": 86.3768,
        "meta_ra_of_asc_node": 5.3347,
        "meta_arg_of_pericenter": 342.2564,
        "meta_mean_anomaly": 71.3567,
        "meta_ephemeris_type": 0,
        "meta_classification_type": "U",
        "meta_norad_cat_id": 34079,
        "meta_element_set_no": 999,
        "meta_rev_at_epoch": 89086,
        "meta_bstar": 0.0010995,
        "meta_mean_motion_dot": 9.114e-05,
        "meta_mean_motion_ddot": 0,
        "tle_line1": "1 34079U 97051CN  25354.05557036  .00009114  00000+0  10995-2 0  9995",
        "tle_line2": "2 34079  86.3768   5.3347 0004734 342.2564  71.3567 14.83701637890869"
      },
      "geometry": {
        "type": "Point",
        "coordinates": [
          127.51212396367802,
          85.71130539851481
        ]
      }
    },
    {
      "type": "Feature",
      "properties": {
        "norad_id": 34088,
        "name": "IRIDIUM 33 DEB",
        "group": "iridium-33-debris",
        "lat": 41.78695038948929,
        "lon": 30.443277802606868,
        "alt_km": 590.9290060980447,
        "timestamp": "2025-12-20T09:36:02.033600+00:00",
        "meta_object_name": "IRIDIUM 33 DEB",
        "meta_object_id": "1997-051CX",
        "meta_epoch": "2025-12-20T01:29:37.281120",
        "meta_mean_motion": 14.9169164,
        "meta_eccentricity": 0.0006466,
        "meta_inclination": 86.3842,
        "meta_ra_of_asc_node": 27.3589,
        "meta_arg_of_pericenter": 153.3403,
        "meta_mean_anomaly": 235.9617,
        "meta_ephemeris_type": 0,
        "meta_classification_type": "U",
        "meta_norad_cat_id": 34088,
        "meta_element_set_no": 999,
        "meta_rev_at_epoch": 88851,
        "meta_bstar": 0.0014203,
        "meta_mean_motion_dot": 0.00014326,
        "meta_mean_motion_ddot": 0,
        "tle_line1": "1 34088U 97051CX  25354.06223705  .00014326  00000+0  14203-2 0  9996",
        "tle_line2": "2 34088  86.3842  27.3589 0006466 153.3403 235.9617 14.91691640888515"
      },
      "geometry": {
        "type": "Point",
        "coordinates": [
          30.443277802606868,
          41.78695038948929
        ]
      }
    },
    {
      "type": "Feature",
      "properties": {
        "norad_id": 34091,
        "name": "IRIDIUM 33 DEB",
        "group": "iridium-33-debris",
        "lat": -32.334478761689056,
        "lon": 61.00405573489184,
        "alt_km": 616.9747421008051,
        "timestamp": "2025-12-20T09:36:02.033610+00:00",
        "meta_object_name": "IRIDIUM 33 DEB",
        "meta_object_id": "1997-051DA",
        "meta_epoch": "2025-12-20T03:15:56.542176",
        "meta_mean_motion": 14.82324174,
        "meta_eccentricity": 0.0034002,
        "meta_inclination": 86.3416,
        "meta_ra_of_asc_node": 63.4462,
        "meta_arg_of_pericenter": 266.5392,
        "meta_mean_anomaly": 93.1941,
        "meta_ephemeris_type": 0,
        "meta_classification_type": "U",
        "meta_norad_cat_id": 34091,
        "meta_element_set_no": 999,
        "meta_rev_at_epoch": 87976,
        "meta_bstar": 0.0028845,
        "meta_mean_motion_dot": 0.00023366,
        "meta_mean_motion_ddot": 0,
        "tle_line1": "1 34091U 97051DA  25354.13607109  .00023366  00000+0  28845-2 0  9993",
        "tle_line2": "2 34091  86.3416  63.4462 0034002 266.5392  93.1941 14.82324174879764"
      },
      "geometry": {
        "type": "Point",
        "coordinates": [
          61.00405573489184,
          -32.334478761689056
        ]
      }
    },
    {
      "type": "Feature",
      "properties": {
        "norad_id": 34097,
        "name": "IRIDIUM 33 DEB",
        "group": "iridium-33-debris",
        "lat": -6.742512171761772,
        "lon": -2.4236901027015363,
        "alt_km": 723.2777145744458,
        "timestamp": "2025-12-20T09:36:02.033621+00:00",
        "meta_object_name": "IRIDIUM 33 DEB",
        "meta_object_id": "1997-051DG",
        "meta_epoch": "2025-12-19T23:35:21.259680",
        "meta_mean_motion": 14.34830969,
        "meta_eccentricity": 0.0081789,
        "meta_inclination": 86.1999,
        "meta_ra_of_asc_node": 358.2106,
        "meta_arg_of_pericenter": 338.4986,
        "meta_mean_anomaly": 21.278,
        "meta_ephemeris_type": 0,
        "meta_classification_type": "U",
        "meta_norad_cat_id": 34097,
        "meta_element_set_no": 999,
        "meta_rev_at_epoch": 87223,
        "meta_bstar": 0.00099794,
        "meta_mean_motion_dot": 2.959e-05,
        "meta_mean_motion_ddot": 0,
        "tle_line1": "1 34097U 97051DG  25353.98288495  .00002959  00000+0  99794-3 0  9991",
        "tle_line2": "2 34097  86.1999 358.2106 0081789 338.4986  21.2780 14.34830969872235"
      },
      "geometry": {
        "type": "Point",
        "coordinates": [
          -2.4236901027015363,
          -6.742512171761772
        ]
      }
    },
    {
      "type": "Feature",
      "properties": {
        "norad_id": 34145,
        "name": "IRIDIUM 33 DEB",
        "group": "iridium-33-debris",
        "lat": 70.07480184598934,
        "lon": 138.58161638999619,
        "alt_km": 713.6651070113894,
        "timestamp": "2025-12-20T09:36:02.033631+00:00",
        "meta_object_name": "IRIDIUM 33 DEB",
        "meta_object_id": "1997-051DY",
        "meta_epoch": "2025-12-18T08:48:48.486240",
        "meta_mean_motion": 14.42328092,
        "meta_eccentricity": 0.00557365,
        "meta_inclination": 86.2113,
        "meta_ra_of_asc_node": 330.0199,
        "meta_arg_of_pericenter": 75.968,
        "meta_mean_anomaly": 284.7708,
        "meta_ephemeris_type": 0,
        "meta_classification_type": "U",
        "meta_norad_cat_id": 34145,
        "meta_element_set_no": 999,
        "meta_rev_at_epoch": 87719,
        "meta_bstar": 0.00092678493,
        "meta_mean_motion_dot": 3.137e-05,
        "meta_mean_motion_ddot": 0,
        "tle_line1": "1 34145U 97051DY  25352.36722785  .00003137  00000+0  92678-3 0  9994",
        "tle_line2": "2 34145  86.2113 330.0199 0055736  75.9680 284.7708 14.42328092877199"
      },
      "geometry": {
        "type": "Point",
        "coordinates": [
          138.58161638999619,
          70.07480184598934
        ]
      }
    },
    {
      "type": "Feature",
      "properties": {
        "norad_id": 34146,
        "name": "IRIDIUM 33 DEB",
        "group": "iridium-33-debris",
        "lat": -66.60746669172296,
        "lon": -22.227130145034128,
        "alt_km": 738.5436669059691,
        "timestamp": "2025-12-20T09:36:02.033641+00:00",
        "meta_object_name": "IRIDIUM 33 DEB",
        "meta_object_id": "1997-051DZ",
        "meta_epoch": "2025-12-20T00:12:57.905856",
        "meta_mean_motion": 14.49092995,
        "meta_eccentricity": 0.0026193,
        "meta_inclination": 86.2829,
        "meta_ra_of_asc_node": 346.5888,
        "meta_arg_of_pericenter": 196.282,
        "meta_mean_anomaly": 218.0405,
        "meta_ephemeris_type": 0,
        "meta_classification_type": "U",
        "meta_norad_cat_id": 34146,
        "meta_element_set_no": 999,
        "meta_rev_at_epoch": 88212,
        "meta_bstar": 0.00059291,
        "meta_mean_motion_dot": 2.281e-05,
        "meta_mean_motion_ddot": 0,
        "tle_line1": "1 34146U 97051DZ  25354.00900354  .00002281  00000+0  59291-3 0  9991",
        "tle_line2": "2 34146  86.2829 346.5888 0026193 196.2820 218.0405 14.49092995882129"
      },
      "geometry": {
        "type": "Point",
        "coordinates": [
          -22.227130145034128,
          -66.60746669172296
        ]
      }
    },
    {
      "type": "Feature",
      "properties": {
        "norad_id": 34159,
        "name": "IRIDIUM 33 DEB",
        "group": "iridium-33-debris",
        "lat": 76.10826182975637,
        "lon": 59.931754164827744,
        "alt_km": 774.8518668284778,
        "timestamp": "2025-12-20T09:36:02.033655+00:00",
        "meta_object_name": "IRIDIUM 33 DEB",
        "meta_object_id": "1997-051EN",
        "meta_epoch": "2025-12-20T04:14:10.387104",
        "meta_mean_motion": 14.38510263,
        "meta_eccentricity": 0.0026019,
        "meta_inclination": 86.3501,
        "meta_ra_of_asc_node": 45.0705,
        "meta_arg_of_pericenter": 261.5269,
        "meta_mean_anomaly": 98.298,
        "meta_ephemeris_type": 0,
        "meta_classification_type": "U",
        "meta_norad_cat_id": 34159,
        "meta_element_set_no": 999,
        "meta_rev_at_epoch": 88066,
        "meta_bstar": 0.00026555,
        "meta_mean_motion_dot": 8.33e-06,
        "meta_mean_motion_ddot": 0,
        "tle_line1": "1 34159U 97051EN  25354.17650911  .00000833  00000+0  26555-3 0  9992",
        "tle_line2": "2 34159  86.3501  45.0705 0026019 261.5269  98.2980 14.38510263880664"
      },
      "geometry": {
        "type": "Point",
        "coordinates": [
          59.931754164827744,
          76.10826182975637
        ]
      }
    }
  ]
}